[
    {
        "CCSDS_OMM_VERS": "3.0",
        "COMMENT": "GENERATED VIA SPACE-TRACK.ORG API",
        "CREATION_DATE": "2025-03-02T18:08:23",
        "ORIGINATOR": "18 SPCS",
        "OBJECT_NAME": "COSMOS 2475 (GLONASS)",
        "OBJECT_ID": "2011-064C",
        "CENTER_NAME": "EARTH",
        "REF_FRAME": "TEME",
        "TIME_SYSTEM": "UTC",
        "MEAN_ELEMENT_THEORY": "SGP4",
        "EPOCH": "2025-03-02T05:38:12.380064",
        "MEAN_MOTION": "2.13101607",
        "ECCENTRICITY": "0.00274790",
        "INCLINATION": "65.0214",
        "RA_OF_ASC_NODE": "88.9283",
        "ARG_OF_PERICENTER": "254.7782",
        "MEAN_ANOMALY": "140.9925",
        "EPHEMERIS_TYPE": "0",
        "CLASSIFICATION_TYPE": "U",
        "NORAD_CAT_ID": "37869",
        "ELEMENT_SET_NO": "999",
        "REV_AT_EPOCH": "10371",
        "BSTAR": "0.00000000000000",
        "MEAN_MOTION_DOT": "0.00000038",
        "MEAN_MOTION_DDOT": "0.0000000000000",
        "SEMIMAJOR_AXIS": "25508.056",
        "PERIOD": "675.734",
        "APOAPSIS": "19200.014",
        "PERIAPSIS": "19059.827",
        "OBJECT_TYPE": "PAYLOAD",
        "RCS_SIZE": "LARGE",
        "COUNTRY_CODE": "CIS",
        "LAUNCH_DATE": "2011-11-04",
        "SITE": "TTMTR",
        "DECAY_DATE": null,
        "FILE": "4657142",
        "GP_ID": "282083864",
        "TLE_LINE0": "0 COSMOS 2475 (GLONASS)",
        "TLE_LINE1": "1 37869U 11064C   25061.23486551  .00000038  00000-0  00000-0 0  9994",
        "TLE_LINE2": "2 37869  65.0214  88.9283 0027479 254.7782 140.9925  2.13101607103718"
    }
]